SITRO-AIS-16
1 61737U 24199C   26067.11396968  .00005339  00000-0  46779-3 0  9999
2 61737  97.3315 272.7286 0008100  56.8609 303.3390 14.97032792116699
SITRO-AIS-15
1 61738U 24199D   26067.09943554  .00004767  00000-0  41812-3 0  9993
2 61738  97.3309 272.7500 0007446  55.6977 304.4950 14.97049617116697
SITRO-AIS-21
1 61739U 24199E   26067.13614938  .00002280  00000-0  21439-3 0  9991
2 61739  97.3331 271.5448 0013900  47.9797 312.2605 14.94741250116656
SITRO-AIS-22
1 61740U 24199F   26067.14787506  .00004148  00000-0  37986-3 0  9995
2 61740  97.3322 271.6844 0013664  47.3183 312.9187 14.95374869116818
SITRO-AIS-24
1 61741U 24199G   26067.14855086  .00005029  00000-0  45726-3 0  9995
2 61741  97.3324 271.6916 0013535  47.9753 312.2618 14.95559870116782
SITRO-AIS-23
1 61742U 24199H   26067.13710480  .00003792  00000-0  34742-3 0  9994
2 61742  97.3328 271.6995 0013697  48.5816 311.6580 14.95406434116665
SITRO-AIS-13
1 61743U 24199J   26067.10568439  .00005024  00000-0  43757-3 0  9993
2 61743  97.3307 272.8826 0007422  57.8375 302.3568 14.97300514116860
CSTP-2.11
1 61744U 24199K   26067.15239833  .00038648  00000-0  78178-3 0  9995
2 61744  97.3144 301.1456 0007373 286.6554  73.3886 15.46326811118729
POLYTECH UNIVERSE-5 (RS70S)
1 61745U 24199L   26067.15480265  .00057302  00000-0  94477-3 0  9991
2 61745  97.3131 302.4902 0004959 288.8834  71.1881 15.52104438121965
COLIBRI-S (RS67S)
1 61746U 24199M   26067.12855664  .00031491  00000-0  70514-3 0  9995
2 61746  97.3157 300.2829 0007693 292.4248  67.6185 15.43366597121802
POLYTECH UNIVERSE-4 (RS71S)
1 61747U 24199N   26067.12700846  .00027606  00000-0  65112-3 0  9998
2 61747  97.3161 299.8344 0008114 290.5878  69.4499 15.41831814121771
SITRO-AIS-44
1 61748U 24199P   26067.05174443  .00074846  00000-0  10909-2 0  9990
2 61748  97.3076 303.1637 0004649 293.1845  66.8919 15.55446313122009
VIZARD-ION (RS68S)
1 61749U 24199Q   26067.15495737  .00043093  00000-0  81190-3 0  9995
2 61749  97.3148 301.7613 0006626 286.1140  73.9381 15.48370066121908
MTUSI-1
1 61750U 24199R   26067.15602571  .00046408  00000-0  87878-3 0  9995
2 61750  97.3113 301.2609 0006687 299.4026  60.6556 15.48207684121888
VLADIVOSTOK-1
1 61751U 24199S   26067.10715066  .00014860  00000-0  44047-3 0  9993
2 61751  97.3152 297.3398 0008878 317.3892  42.6662 15.34903629121624
SITRO-AIS-14
1 61752U 24199T   26067.14989490  .00004489  00000-0  39338-3 0  9995
2 61752  97.3313 272.8316 0007353  53.7912 306.3990 14.97109659120007
HORS-3 (RS81S)
1 61753U 24199U   26067.15995574  .00043729  00000-0  82725-3 0  9995
2 61753  97.3127 301.4097 0005709 298.4814  61.5862 15.48255747121891
HORS-4 (RS82S)
1 61754U 24199V   26067.10150711  .00055945  00000-0  95829-3 0  9999
2 61754  97.3097 302.0419 0005287 296.3568  63.7141 15.51034635121931
SITRO-AIS-43
1 61755U 24199W   26067.15015581  .00072115  00000-0  10403-2 0  9992
2 61755  97.3093 303.3434 0003828 286.6776  73.4058 15.55742087122028
SITRO-AIS-42
1 61756U 24199X   26067.13116314  .00078505  00000-0  11245-2 0  9991
2 61756  97.3086 303.3722 0004388 293.3412  66.7381 15.55907074122028
HORIZON (RS59S)
1 61757U 24199Y   26067.15303342  .00173483  00000-0  14348-2 0  9991
2 61757  97.3069 305.8886 0003039 259.4649 100.6271 15.69739025122182
SITRO-AIS-20
1 61758U 24199Z   26067.14937262  .00004557  00000-0  39657-3 0  9991
2 61758  97.3309 272.9627 0007123  55.5298 304.6597 14.97371992120012
SITRO-AIS-19
1 61759U 24199AA  26067.15115615  .00004454  00000-0  38802-3 0  9990
2 61759  97.3308 272.9627 0007036  56.9282 303.2616 14.97348095120018
SITRO-AIS-41
1 61760U 24199AB  26067.10758322  .00071046  00000-0  10505-2 0  9995
2 61760  97.3110 303.1357 0003787 287.9319  72.1523 15.55072075122001
NORBY-3
1 61761U 24199AC  26067.12769311  .00049520  00000-0  89343-3 0  9997
2 61761  97.3101 301.8572 0005043 296.2689  63.8044 15.49591061121925
ARCTICSAT-1 (RS74S)
1 61762U 24199AD  26067.16158583  .00129617  00000-0  12856-2 0  9995
2 61762  97.3087 305.4293 0003465 259.0140 101.0730 15.65372029122156
SIT-HSE
1 61763U 24199AE  26067.12923502  .00031809  00000-0  62236-3 0  9996
2 61763  97.3132 302.0744 0004619 310.9556  49.1293 15.47353791121938
SIT-2086
1 61764U 24199AF  26067.10551895  .00032626  00000-0  63367-3 0  9991
2 61764  97.3120 302.0877 0006023 279.3364  80.7205 15.47553795118777
RUZAEVKA-390 (RS44S)
1 61766U 24199AH  26067.04517038  .02353764  80606-2  19706-2 0  9997
2 61766  97.2745 309.3540 0002925 182.2367 177.8908 16.15871815119265
HOD-HOD
1 61768U 24199AK  26067.14966512  .00032548  00000-0  68458-3 0  9994
2 61768  97.3126 301.0052 0004602 309.9032  50.1812 15.45235191118718
KOSAR
1 61769U 24199AL  26067.10099697  .00039406  00000-0  75683-3 0  9990
2 61769  97.3119 301.6462 0004227 310.2283  49.8598 15.47849209118751
SITRO-AIS-48
1 61771U 24199AN  26067.11874424  .00054411  00000-0  97706-3 0  9996
2 61771  97.3087 301.1398 0007419 308.9293  51.1297 15.49686773118739
HYPERVIEW-1G (RS66S)
1 61772U 24199AP  26067.15080457  .00088198  00000-0  11790-2 0  9993
2 61772  97.3083 303.1833 0006612 292.3396  67.7159 15.57726536118861
SITRO-AIS-47
1 61773U 24199AQ  26067.13065142  .00053104  00000-0  93929-3 0  9990
2 61773  97.3092 301.2871 0007126 308.0356  52.0252 15.50125230118740
SITRO-AIS-46
1 61774U 24199AR  26067.14292556  .00058668  00000-0  10012-2 0  9994
2 61774  97.3071 301.5446 0007055 311.5650  48.4996 15.51116086118762
CSTP-2.2
1 61775U 24199AS  26067.10028222  .00024685  00000-0  59545-3 0  9995
2 61775  97.3146 299.1527 0014238 287.9599  72.0096 15.41103888118586
SITRO-AIS-40
1 61776U 24199AT  26067.13536501  .00060156  00000-0  10208-2 0  9998
2 61776  97.3072 301.5589 0006726 310.1231  49.9431 15.51272511121914
CSTP-2.1
1 61777U 24199AU  26067.12705780  .00025170  00000-0  59270-3 0  9995
2 61777  97.3147 299.2619 0013909 289.3743  70.6000 15.41831663118592
SITRO-AIS-39
1 61778U 24199AV  26067.16313821  .00055078  00000-0  99405-3 0  9995
2 61778  97.3087 301.0825 0007443 309.3411  50.7180 15.49539458118737
ALTAIR (RS65S)
1 61779U 24199AW  26067.13703972  .00013494  00000-0  39910-3 0  9994
2 61779  97.3179 297.2077 0012192 314.5348  45.4899 15.34960601121609
SITRO-AIS-37
1 61780U 24199AX  26067.15940454  .00055307  00000-0  97517-3 0  9992
2 61780  97.3096 301.2922 0007671 308.3259  51.7303 15.50200948118742
ASRTU-1 (RS64S/BJ2CR/AO-123)
1 61781U 24199AY  26067.11573896  .00014123  00000-0  42996-3 0  9993
2 61781  97.3152 296.7165 0012941 316.5451  43.4771 15.34026653118427
TUSUR GO (RS78S)
1 61782U 24199AZ  26067.10278984  .00191985  00000-0  15518-2 0  9994
2 61782  97.3020 304.8461 0003691 282.8676  77.2174 15.70239488118972
SAMSAT-IONOSPHERE (RS75S)
1 61784U 24199BB  26067.12072302  .00052574  00000-0  95378-3 0  9997
2 61784  97.3115 301.1604 0008773 300.5771  59.4614 15.49390865121875
RTU MIREA-1 (RS51S)
1 61785U 24199BC  26067.12058336  .00062259  00000-0  10547-2 0  9994
2 61785  97.3113 301.6005 0008498 296.2162  63.8217 15.51295310118756
SITRO-AIS-38
1 61786U 24199BD  26067.12654061  .00025023  00000-0  53825-3 0  9997
2 61786  97.3107 300.5691 0009413 304.5329  55.5030 15.44589291118695
2024-199BE (? SWSU-60)
1 61787U 24199BE  26067.11529491  .00015716  00000-0  47049-3 0  9994
2 61787  97.3163 296.9035 0012777 314.9920  45.0287 15.34535592121581
SITRO-AIS-45
1 61788U 24199BF  26067.13127862  .00054509  00000-0  97672-3 0  9993
2 61788  97.3086 301.0979 0007421 309.3390  50.7203 15.49747685118716
SITRO-AIS-17
1 61789U 24199BG  26067.14137941  .00004090  00000-0  35630-3 0  9990
2 61789  97.3321 272.9988 0007546  60.7151 299.4826 14.97383808116914
SITRO-AIS-18
1 61790U 24199BH  26067.15182603  .00004472  00000-0  38961-3 0  9992
2 61790  97.3309 272.9651 0007055  58.4525 301.7386 14.97337247116917
INNOCUBE (TUBSAT-31)
1 62616U 25009H   26067.15397272  .00013184  00000-0  53179-3 0  9999
2 62616  97.3949 148.3013 0005252 342.1108  17.9944 15.24922009 63419
OTP-2
1 63235U 25052AB  26066.93193809  .00014417  00000-0  62538-3 0  9999
2 63235  97.3984 320.9110 0007300 144.4265 215.7459 15.22429425 54450
HADES-ICM (SO-125)
1 63492U 25052BN  26067.15492220  .00185438  00000-0  25728-2 0  9999
2 63492  97.3945 327.5470 0008822 113.7130 246.5052 15.56363578 54908
IONOSFERA-M 03
1 64876U 25155A   26067.16692506  .00000130  00000-0  79157-4 0  9992
2 64876  98.5922  31.6758 0002069 120.4086 239.7296 14.21466165 32050
IONOSFERA-M 04
1 64877U 25155B   26067.20190642  .00000136  00000-0  81709-4 0  9994
2 64877  98.5917  31.6282 0001658 104.9665 255.1696 14.21467886 32057
INNOSAT16 (RS92S7)
1 64878U 25155C   26067.14098560  .00010837  00000-0  44740-3 0  9996
2 64878  97.4466  34.7496 0010794 170.6689 189.4751 15.24152275 65271
GEOSCAN-6 (RS92S6)
1 64879U 25155D   26067.14336245  .00017951  00000-0  65975-3 0  9999
2 64879  97.4465  35.5268 0008549 159.4533 200.7052 15.27928912 65324
GEOSCAN 1 (RS92S1)
1 64880U 25155E   26067.17957868  .00019388  00000-0  70316-3 0  9995
2 64880  97.4465  35.6358 0008471 159.2473 200.9112 15.28350773 65337
239ALFEROV (RS61S)
1 64881U 25155F   26067.14136683  .00025324  00000-0  87575-3 0  9999
2 64881  97.4468  35.8676 0008222 157.1941 202.9666 15.29855755 65345
CSTP-4.3
1 64882U 25155G   26067.15491787  .00015655  00000-0  58281-3 0  9998
2 64882  97.4489  35.5592 0007955 159.3139 200.8423 15.27540806 65320
CSTP-4.2
1 64883U 25155H   26066.95841867  .00016094  00000-0  59913-3 0  9995
2 64883  97.4482  35.3496 0007976 158.0925 202.0656 15.27534813 65296
CSTP-4.4
1 64884U 25155J   26067.15450975  .00016087  00000-0  59888-3 0  9998
2 64884  97.4475  35.5463 0008611 155.3265 204.8388 15.27530019 65329
ASTROLINE-N3
1 64886U 25155L   26067.18336294  .00045499  00000-0  13226-2 0  9994
2 64886  97.4401  36.5665 0008746 143.0231 217.1616 15.35282274 65407
